COMMENT,ORIGINATOR,NORAD_CAT_ID,OBJECT_NAME,OBJECT_TYPE,CLASSIFICATION_TYPE,INTLDES,EPOCH,EPOCH_MICROSECONDS,MEAN_MOTION,ECCENTRICITY,INCLINATION,RA_OF_ASC_NODE,ARG_OF_PERICENTER,MEAN_ANOMALY,EPHEMERIS_TYPE,ELEMENT_SET_NO,REV_AT_EPOCH,BSTAR,MEAN_MOTION_DOT,MEAN_MOTION_DDOT,FILE,TLE_LINE0,TLE_LINE1,TLE_LINE2,OBJECT_ID,OBJECT_NUMBER,SEMIMAJOR_AXIS,PERIOD,APOGEE,PERIGEE,DECAYED,date
GENERATED VIA SPACETRACK.ORG API,18 SPCS,48890,SPACEBEE-104,PAYLOAD,U,21059M,2023/2/21 21:54,913248,15.23690133,0.0007915,97.579,187.7653,315.5598,44.5003,0,999,9179,0.0013496,0.00032456,0,3821539,0 SPACEBEE-104,1 48890U 21059M   23052.91282307  .00032456  00000-0  13496-2 0  9995,2 48890  97.5790 187.7653 0007915 315.5598  44.5003 15.23690133 91798,2021-059M,48890,6872.859,94.507,500.163,489.284,0,2023/4/26
GENERATED VIA SPACETRACK.ORG API,18 SPCS,48890,SPACEBEE-104,PAYLOAD,U,21059M,2023/2/22 8:56,984608,15.23716547,0.0007926,97.579,188.2297,314.205,45.8535,0,999,9186,0.0011678,0.0002808,0,3824148,0 SPACEBEE-104,1 48890U 21059M   23053.37252297  .00028080  00000-0  11678-2 0  9999,2 48890  97.5790 188.2297 0007926 314.2050  45.8535 15.23716547 91869,2021-059M,48890,6872.779,94.506,500.091,489.197,0,2023/4/27
GENERATED VIA SPACETRACK.ORG API,18 SPCS,48890,SPACEBEE-104,PAYLOAD,U,21059M,2023/2/23 8:34,749056,15.23778259,0.0007914,97.5789,189.2249,310.6461,49.4087,0,999,9201,0.0013466,0.00032469,0,3827987,0 SPACEBEE-104,1 48890U 21059M   23054.35756654  .00032469  00000-0  13466-2 0  9997,2 48890  97.5789 189.2249 0007914 310.6461  49.4087 15.23778259 92016,2021-059M,48890,6872.594,94.502,499.898,489.02,0,2023/4/28
GENERATED VIA SPACETRACK.ORG API,18 SPCS,48890,SPACEBEE-104,PAYLOAD,U,21059M,2023/2/23 8:34,749056,15.23778259,0.0007914,97.5789,189.2249,310.6461,49.4087,0,999,9201,0.0013466,0.00032469,0,3828819,0 SPACEBEE-104,1 48890U 21059M   23054.35756654  .00032469  00000-0  13466-2 0  9997,2 48890  97.5789 189.2249 0007914 310.6461  49.4087 15.23778259 92016,2021-059M,48890,6872.594,94.502,499.898,489.02,0,2023/4/29
GENERATED VIA SPACETRACK.ORG API,18 SPCS,48890,SPACEBEE-104,PAYLOAD,U,21059M,2023/2/23 19:36,572288,15.2380436,0.0007895,97.5792,189.6892,308.7298,51.3232,0,999,9208,0.0012076,0.00029119,0,3830532,0 SPACEBEE-104,1 48890U 21059M   23054.81724042  .00029119  00000-0  12076-2 0  9998,2 48890  97.5792 189.6892 0007895 308.7298  51.3232 15.23804360 92086,2021-059M,48890,6872.515,94.5,499.806,488.954,0,2023/4/30
GENERATED VIA SPACETRACK.ORG API,18 SPCS,48890,SPACEBEE-104,PAYLOAD,U,21059M,2023/2/24 8:13,131808,15.23838772,0.0007934,97.579,190.22,307.0379,53.0131,0,999,9216,0.0013015,0.00031431,0,3832867,0 SPACEBEE-104,1 48890U 21059M   23055.34257097  .00031431  00000-0  13015-2 0  9992,2 48890  97.5790 190.2200 0007934 307.0379  53.0131 15.23838772 92161,2021-059M,48890,6872.412,94.498,499.729,488.824,0,
GENERATED VIA SPACETRACK.ORG API,18 SPCS,48890,SPACEBEE-104,PAYLOAD,U,21059M,2023/2/24 14:31,92320,15.238493,0.0007946,97.5789,190.4856,306.0969,53.9532,0,999,9220,0.0010592,0.00025554,0,3834022,0 SPACEBEE-104,1 48890U 21059M   23055.60523255  .00025554  00000-0  10592-2 0  9999,2 48890  97.5789 190.4856 0007946 306.0969  53.9532 15.23849300 92203,2021-059M,48890,6872.38,94.498,499.706,488.784,0,
GENERATED VIA SPACETRACK.ORG API,18 SPCS,48890,SPACEBEE-104,PAYLOAD,U,21059M,2023/2/24 14:31,92320,15.238493,0.0007946,97.5789,190.4856,306.0969,53.9532,0,999,9220,0.0010592,0.00025554,0,3835059,0 SPACEBEE-104,1 48890U 21059M   23055.60523255  .00025554  00000-0  10592-2 0  9999,2 48890  97.5789 190.4856 0007946 306.0969  53.9532 15.23849300 92203,2021-059M,48890,6872.38,94.498,499.706,488.784,0,
GENERATED VIA SPACETRACK.ORG API,18 SPCS,48890,SPACEBEE-104,PAYLOAD,U,21059M,2023/2/25 14:09,607808,15.23902736,0.0007951,97.5789,191.4808,302.5204,57.5264,0,999,9235,0.0011136,0.00026918,0,3837605,0 SPACEBEE-104,1 48890U 21059M   23056.59019222  .00026918  00000-0  11136-2 0  9992,2 48890  97.5789 191.4808 0007951 302.5204  57.5264 15.23902736 92351,2021-059M,48890,6872.219,94.494,499.548,488.62,0,
GENERATED VIA SPACETRACK.ORG API,18 SPCS,48890,SPACEBEE-104,PAYLOAD,U,21059M,2023/2/25 20:28,603232,15.23919103,0.0007943,97.5789,191.7463,301.4732,58.5728,0,999,9239,0.0012294,0.0002975,0,3839003,0 SPACEBEE-104,1 48890U 21059M   23056.85284263  .00029750  00000-0  12294-2 0  9993,2 48890  97.5789 191.7463 0007943 301.4732  58.5728 15.23919103 92392,2021-059M,48890,6872.17,94.493,499.494,488.577,0,
GENERATED VIA SPACETRACK.ORG API,18 SPCS,48890,SPACEBEE-104,PAYLOAD,U,21059M,2023/2/25 22:02,803488,15.23923339,0.0007943,97.5789,191.8127,301.3199,58.726,0,999,9240,0.0012577,0.00030443,0,3839237,0 SPACEBEE-104,1 48890U 21059M   23056.91850467  .00030443  00000-0  12577-2 0  9990,2 48890  97.5789 191.8127 0007943 301.3199  58.7260 15.23923339 92407,2021-059M,48890,6872.157,94.493,499.481,488.564,0,
GENERATED VIA SPACETRACK.ORG API,18 SPCS,48890,SPACEBEE-104,PAYLOAD,U,21059M,2023/2/26 7:29,668928,15.23950445,0.0007928,97.5788,192.2111,300.1063,59.9387,0,999,9246,0.0013983,0.00033898,0,3841853,0 SPACEBEE-104,1 48890U 21059M   23057.31247302  .00033898  00000-0  13983-2 0  9992,2 48890  97.5788 192.2111 0007928 300.1063  59.9387 15.23950445 92461,2021-059M,48890,6872.076,94.491,499.389,488.493,0,
GENERATED VIA SPACETRACK.ORG API,18 SPCS,48890,SPACEBEE-104,PAYLOAD,U,21059M,2023/2/27 2:24,739200,15.23999432,0.0007843,97.5787,193.0075,297.1572,62.8865,0,999,9258,0.0013488,0.00032737,0,3843629,0 SPACEBEE-104,1 48890U 21059M   23058.10039050  .00032737  00000-0  13488-2 0  9990,2 48890  97.5787 193.0075 0007843 297.1572  62.8865 15.23999432 92580,2021-059M,48890,6871.929,94.488,499.183,488.404,0,
GENERATED VIA SPACETRACK.ORG API,18 SPCS,48890,SPACEBEE-104,PAYLOAD,U,21059M,2023/2/27 7:08,285888,15.2402341,0.0007894,97.5786,193.2066,296.5496,63.4931,0,999,9261,0.0017889,0.00043537,0,3845193,0 SPACEBEE-104,1 48890U 21059M   23058.29736442  .00043537  00000-0  17889-2 0  9998,2 48890  97.5786 193.2066 0007894 296.5496  63.4931 15.24023410 92615,2021-059M,48890,6871.857,94.487,499.146,488.297,0,
GENERATED VIA SPACETRACK.ORG API,18 SPCS,48890,SPACEBEE-104,PAYLOAD,U,21059M,2023/2/27 7:08,285888,15.2402341,0.0007894,97.5786,193.2066,296.5496,63.4931,0,999,9261,0.0017889,0.00043537,0,3846396,0 SPACEBEE-104,1 48890U 21059M   23058.29736442  .00043537  00000-0  17889-2 0  9998,2 48890  97.5786 193.2066 0007894 296.5496  63.4931 15.24023410 92615,2021-059M,48890,6871.857,94.487,499.146,488.297,0,
GENERATED VIA SPACETRACK.ORG API,18 SPCS,48890,SPACEBEE-104,PAYLOAD,U,21059M,2023/2/27 8:42,154368,15.24046123,0.0007881,97.5786,193.2728,296.251,63.7916,0,999,9262,0.0028239,0.00069051,0,3846537,0 SPACEBEE-104,1 48890U 21059M   23058.36302262  .00069051  00000-0  28239-2 0  9995,2 48890  97.5786 193.2728 0007881 296.2510  63.7916 15.24046123 92623,2021-059M,48890,6871.788,94.485,499.069,488.238,0,
GENERATED VIA SPACETRACK.ORG API,18 SPCS,48890,SPACEBEE-104,PAYLOAD,U,21059M,2023/2/27 8:42,154368,15.24046123,0.0007881,97.5786,193.2728,296.251,63.7916,0,999,9262,0.0028239,0.00069051,0,3846812,0 SPACEBEE-104,1 48890U 21059M   23058.36302262  .00069051  00000-0  28239-2 0  9995,2 48890  97.5786 193.2728 0007881 296.2510  63.7916 15.24046123 92623,2021-059M,48890,6871.788,94.485,499.069,488.238,0,
GENERATED VIA SPACETRACK.ORG API,18 SPCS,48890,SPACEBEE-104,PAYLOAD,U,21059M,2023/2/28 3:37,896000,15.24106832,0.0007886,97.5784,194.0693,293.1618,66.8788,0,999,9274,0.0019234,0.00046953,0,3846994,0 SPACEBEE-104,1 48890U 21059M   23059.15089000  .00046953  00000-0  19234-2 0  9996,2 48890  97.5784 194.0693 0007886 293.1618  66.8788 15.24106832 92749,2021-059M,48890,6871.606,94.482,498.89,488.052,0,
GENERATED VIA SPACETRACK.ORG API,18 SPCS,48890,SPACEBEE-104,PAYLOAD,U,21059M,2023/2/28 8:20,334176,15.24124378,0.0007876,97.5783,194.2683,292.4495,67.5907,0,999,9277,0.00182,0.00044433,0,3847542,0 SPACEBEE-104,1 48890U 21059M   23059.34785109  .00044433  00000-0  18200-2 0  9993,2 48890  97.5783 194.2683 0007876 292.4495  67.5907 15.24124378 92772,2021-059M,48890,6871.553,94.48,498.83,488.006,0,
GENERATED VIA SPACETRACK.ORG API,18 SPCS,48890,SPACEBEE-104,PAYLOAD,U,21059M,2023/2/28 20:57,384512,15.2415664,0.00079,97.5782,194.7993,290.4474,69.5914,0,999,9285,0.0011999,0.00029238,0,3847656,0 SPACEBEE-104,1 48890U 21059M   23059.87307158  .00029238  00000-0  11999-2 0  9999,2 48890  97.5782 194.7993 0007900 290.4474  69.5914 15.24156640 92859,2021-059M,48890,6871.456,94.478,498.749,487.893,0,
GENERATED VIA SPACETRACK.ORG API,18 SPCS,48890,SPACEBEE-104,PAYLOAD,U,21059M,2023/2/28 22:31,711264,15.24159718,0.0007901,97.5781,194.8657,290.2162,69.8225,0,999,9286,0.0011583,0.0002822,0,3848059,0 SPACEBEE-104,1 48890U 21059M   23059.93872351  .00028220  00000-0  11583-2 0  9997,2 48890  97.5781 194.8657 0007901 290.2162  69.8225 15.24159718 92867,2021-059M,48890,6871.447,94.478,498.741,487.883,0,
GENERATED VIA SPACETRACK.ORG API,18 SPCS,48890,SPACEBEE-104,PAYLOAD,U,21059M,2023/3/1 7:58,151648,15.24194012,0.0007958,97.5781,195.264,288.8029,71.2345,0,999,9292,0.0015045,0.00036757,0,3848341,0 SPACEBEE-104,1 48890U 21059M   23060.33262907  .00036757  00000-0  15045-2 0  9994,2 48890  97.5781 195.2640 0007958 288.8029  71.2345 15.24194012 92924,2021-059M,48890,6871.344,94.476,498.677,487.741,0,
GENERATED VIA SPACETRACK.ORG API,18 SPCS,48890,SPACEBEE-104,PAYLOAD,U,21059M,2023/3/1 20:35,207872,15.24225333,0.0007975,97.5781,195.795,286.7389,73.2972,0,999,9300,0.0012425,0.00030345,0,3848834,0 SPACEBEE-104,1 48890U 21059M   23060.85782648  .00030345  00000-0  12425-2 0  9996,2 48890  97.5781 195.7950 0007975 286.7389  73.2972 15.24225333 93007,2021-059M,48890,6871.25,94.474,498.594,487.635,0,
